OBJECT_NAME,OBJECT_ID,EPOCH,MEAN_MOTION,ECCENTRICITY,INCLINATION,RA_OF_ASC_NODE,ARG_OF_PERICENTER,MEAN_ANOMALY,EPHEMERIS_TYPE,CLASSIFICATION_TYPE,NORAD_CAT_ID,ELEMENT_SET_NO,REV_AT_EPOCH,BSTAR,MEAN_MOTION_DOT,MEAN_MOTION_DDOT
STARLINK-37708,2026-127AC,2026-06-17T14:00:01.000224,15.89276370,.00011177,53.1574,259.9507,67.1471,303.4032,0,U,69469,999,270,-.71214705E-2,-.1816049E-1,0
STARLINK-37686,2026-127AD,2026-06-17T14:00:01.000224,15.89713775,.00008427,53.1574,259.9329,60.6640,318.4118,0,U,69470,999,270,-.68638095E-2,-.1793512E-1,0
STARLINK-37451,2026-127AE,2026-06-17T14:00:01.000224,15.89833075,.00009194,53.1573,259.9188,74.2312,311.6424,0,U,69471,999,270,-.63474841E-2,-.1685486E-1,0
DTC TEST OBJECT A,2026-128A,2026-06-17T14:49:43.273344,15.55853289,.00084921,54.9945,303.0397,290.9767,69.0360,0,U,69472,999,129,.29880141E-3,.20612E-3,0
DTC TEST OBJECT B,2026-128B,2026-06-17T14:47:09.684384,15.56312305,.00085483,55.0033,303.0351,291.7555,68.2571,0,U,69473,999,128,.37059116E-3,.26145E-3,0
TJS-25,2026-129A,2026-06-11T11:34:53.014656,1.72502163,.7751889,16.5302,30.5351,199.9639,91.9387,0,U,69474,999,7,.19774E-2,.7407E-4,0
2026-132A,2026-132A,2026-06-17T10:07:51.742560,14.99044812,.00125038,97.6908,232.0949,269.8950,90.0840,0,U,69502,999,81,.42731083E-4,.459E-5,0
2026-132B,2026-132B,2026-06-17T11:43:30.488448,14.99134965,.00124111,97.6939,232.1634,271.9225,88.0577,0,U,69503,999,82,.26266739E-4,.26E-5,0
BRO-22,2026-132C,2026-06-17T03:39:52.966368,14.99757939,.00138854,97.6879,231.8305,284.9851,74.9835,0,U,69504,999,77,.50441714E-4,.564E-5,0
2026-132D,2026-132D,2026-06-16T03:33:11.183904,15.01725287,.00117095,97.6817,230.8394,297.0190,62.9838,0,U,69505,999,62,.11328567E-3,.1415E-4,0
2026-132E,2026-132E,2026-06-17T09:58:28.128576,15.00878988,.00127297,97.6943,232.1097,306.9523,53.0535,0,U,69506,999,80,.12197619E-3,.1494E-4,0
2026-132F,2026-132F,2026-06-13T09:58:10.881408,15.01040982,.00109152,97.6869,228.1362,319.8335,40.2082,0,U,69507,999,20,.25250362E-3,.317E-4,0
STARLINK-37536,2026-133A,2026-06-16T20:00:01.999872,16.09769188,.00005594,53.1606,324.8173,59.5001,99.8327,0,U,69508,999,191,-.14088636E-2,-.1341643E-1,.63493608E-3
STARLINK-37341,2026-133B,2026-06-16T20:00:01.999872,16.09984093,.00005956,53.1607,324.8139,70.2369,90.7497,0,U,69509,999,191,-.13701867E-2,-.1323587E-1,.62105125E-3
STARLINK-36536,2026-133C,2026-06-16T20:00:01.999872,16.10237936,.00006501,53.1607,324.8108,68.3984,94.1407,0,U,69510,999,185,-.13269024E-2,-.1303653E-1,.60597924E-3
STARLINK-37420,2026-133D,2026-06-16T20:00:01.999872,16.10798910,.0000538,53.1605,324.8045,76.2331,89.2678,0,U,69511,999,180,-.12310509E-2,-.1255897E-1,.57006736E-3
STARLINK-37511,2026-133E,2026-06-16T20:00:01.999872,16.10524822,.0000672,53.1608,324.8079,78.1650,85.8252,0,U,69512,999,180,-.12709275E-2,-.1272983E-1,.5822781E-3
STARLINK-37552,2026-133F,2026-06-16T20:00:01.999872,16.11031128,.00007111,53.1605,324.8018,60.3609,106.7359,0,U,69513,999,180,-.11880728E-2,-.1231309E-1,.55149058E-3
STARLINK-37607,2026-133G,2026-06-16T20:00:01.999872,16.11198140,.00006896,53.1606,324.7976,66.5425,102.3369,0,U,69514,999,180,-.11664178E-2,-.1222552E-1,.54552349E-3
STARLINK-37232,2026-133H,2026-06-16T20:00:01.999872,16.11435750,.00005724,53.1606,324.7947,92.2145,78.2582,0,U,69515,999,180,-.11300965E-2,-.1203744E-1,.53194055E-3
STARLINK-37323,2026-133J,2026-06-16T20:00:01.999872,16.11655501,.00004703,53.1605,324.7910,91.0897,81.0143,0,U,69516,999,180,-.10929067E-2,-.1181758E-1,.51582978E-3
STARLINK-37357,2026-133K,2026-06-16T20:00:01.999872,16.11795371,.00004148,53.1606,324.7871,70.9359,103.0168,0,U,69517,999,180,-.10762781E-2,-.11749E-1,.51131544E-3
STARLINK-37408,2026-133L,2026-06-16T20:00:01.999872,16.11998911,.00004291,53.1606,324.7837,78.4039,97.2295,0,U,69518,999,180,-.10443456E-2,-.1156102E-1,.49783377E-3
STARLINK-37570,2026-133M,2026-06-16T20:00:01.999872,16.12524652,.00005762,53.1606,324.7772,72.8842,105.8193,0,U,69519,999,180,-.97350438E-3,-.1117454E-1,.47120443E-3
STARLINK-37510,2026-133N,2026-06-16T20:00:01.999872,16.12263257,.00004316,53.1604,324.7811,88.9406,88.2021,0,U,69520,999,180,-.99973256E-3,-.1127146E-1,.47702684E-3
STARLINK-37586,2026-133P,2026-06-16T20:00:01.999872,16.12898519,.00004738,53.1604,324.7704,76.2663,105.8832,0,U,69521,999,180,-.92160568E-3,-.1085741E-1,.44940027E-3
STARLINK-37379,2026-133Q,2026-06-16T20:00:01.999872,16.13046715,.00005612,53.1605,324.7665,75.0758,108.9019,0,U,69522,999,185,-.90529821E-3,-.1077576E-1,.44415293E-3
STARLINK-37429,2026-133R,2026-06-16T20:00:01.999872,16.13190391,.00006343,53.1604,324.7625,69.2190,116.6016,0,U,69523,999,185,-.88979361E-3,-.1069779E-1,.43917218E-3
STARLINK-37352,2026-133S,2026-06-16T20:00:01.999872,16.13435818,.00004381,53.1604,324.7595,81.9079,105.4751,0,U,69524,999,185,-.85282376E-3,-.1043217E-1,.42096799E-3
